0 COSMOS 2275 (GLONASS)
1 23045U 94021C   13284.29540155  .00000072  00000-0  00000+0 0  7535
2 23045 063.8197 103.0578 0022486 034.3773 356.2826 02.13102519151792
0 COSMOS 2275 (GLONASS)
1 23045U 94021C   13288.47899544  .00000075  00000-0  00000+0 0  7542
2 23045 063.8202 102.9089 0022461 034.5776 325.6140 02.13102555151870
0 COSMOS 2275 (GLONASS)
1 23045U 94021C   13290.35602503  .00000000  00000-0  10000-3 0  7564
2 23045 063.8230 102.8447 0022578 034.4111 325.7742 02.13101516151919
0 COSMOS 2275 (GLONASS)
1 23045U 94021C   13292.81883824  .00000028  00000-0  00000+0 0  7558
2 23045 063.8224 102.7575 0022517 034.3773 055.2045 02.13102661151978
0 COSMOS 2275 (GLONASS)
1 23045U 94021C   13295.36507198  .00000029  00000-0  00000+0 0  7560
2 23045 063.8234 102.6679 0022468 034.3849 208.5928 02.13102600152025
